[{"OBJECT_NAME":"STARLINK-3166","OBJECT_ID":"2022-010G","EPOCH":"2026-03-14T19:14:01.933728","MEAN_MOTION":15.08835382,"ECCENTRICITY":0.00011445,"INCLINATION":53.2181,"RA_OF_ASC_NODE":256.1839,"ARG_OF_PERICENTER":90.939,"MEAN_ANOMALY":269.1734,"EPHEMERIS_TYPE":0,"CLASSIFICATION_TYPE":"U","NORAD_CAT_ID":51462,"ELEMENT_SET_NO":999,"REV_AT_EPOCH":22759,"BSTAR":2.3128579e-5,"MEAN_MOTION_DOT":8.0e-7,"MEAN_MOTION_DDOT":0},{"OBJECT_NAME":"STARLINK-3419","OBJECT_ID":"2022-010H","EPOCH":"2026-03-14T21:46:19.496640","MEAN_MOTION":15.08841372,"ECCENTRICITY":0.00013211,"INCLINATION":53.2158,"RA_OF_ASC_NODE":255.699,"ARG_OF_PERICENTER":99.967,"MEAN_ANOMALY":260.1472,"EPHEMERIS_TYPE":0,"CLASSIFICATION_TYPE":"U","NORAD_CAT_ID":51463,"ELEMENT_SET_NO":999,"REV_AT_EPOCH":22730,"BSTAR":2.7950228e-5,"MEAN_MOTION_DOT":1.57e-6,"MEAN_MOTION_DDOT":0},{"OBJECT_NAME":"STARLINK-3189","OBJECT_ID":"2022-010J","EPOCH":"2026-03-14T19:02:03.249888","MEAN_MOTION":15.08834909,"ECCENTRICITY":0.00012079,"INCLINATION":53.216,"RA_OF_ASC_NODE":256.2104,"ARG_OF_PERICENTER":92.1086,"MEAN_ANOMALY":268.0045,"EPHEMERIS_TYPE":0,"CLASSIFICATION_TYPE":"U","NORAD_CAT_ID":51464,"ELEMENT_SET_NO":999,"REV_AT_EPOCH":22809,"BSTAR":-7.065112e-6,"MEAN_MOTION_DOT":-4.0e-6,"MEAN_MOTION_DDOT":0},{"OBJECT_NAME":"STARLINK-3401","OBJECT_ID":"2022-010K","EPOCH":"2026-03-14T22:07:31.395360","MEAN_MOTION":15.0884097,"ECCENTRICITY":0.00013308,"INCLINATION":53.2169,"RA_OF_ASC_NODE":255.6329,"ARG_OF_PERICENTER":90.9359,"MEAN_ANOMALY":269.1786,"EPHEMERIS_TYPE":0,"CLASSIFICATION_TYPE":"U","NORAD_CAT_ID":51465,"ELEMENT_SET_NO":999,"REV_AT_EPOCH":22811,"BSTAR":6.2836855e-5,"MEAN_MOTION_DOT":7.12e-6,"MEAN_MOTION_DDOT":0},{"OBJECT_NAME":"STARLINK-3178","OBJECT_ID":"2022-010M","EPOCH":"2026-03-14T21:41:00.060288","MEAN_MOTION":15.08854153,"ECCENTRICITY":0.00011772,"INCLINATION":53.2149,"RA_OF_ASC_NODE":255.7111,"ARG_OF_PERICENTER":97.0294,"MEAN_ANOMALY":263.0832,"EPHEMERIS_TYPE":0,"CLASSIFICATION_TYPE":"U","NORAD_CAT_ID":51467,"ELEMENT_SET_NO":999,"REV_AT_EPOCH":22730,"BSTAR":0.00012188053,"MEAN_MOTION_DOT":1.653e-5,"MEAN_MOTION_DDOT":0},{"OBJECT_NAME":"STARLINK-3174","OBJECT_ID":"2022-010N","EPOCH":"2026-03-14T21:51:37.960128","MEAN_MOTION":15.08835442,"ECCENTRICITY":0.00012773,"INCLINATION":53.2164,"RA_OF_ASC_NODE":255.6415,"ARG_OF_PERICENTER":94.327,"MEAN_ANOMALY":265.7868,"EPHEMERIS_TYPE":0,"CLASSIFICATION_TYPE":"U","NORAD_CAT_ID":51468,"ELEMENT_SET_NO":999,"REV_AT_EPOCH":22730,"BSTAR":9.0142338e-5,"MEAN_MOTION_DOT":1.147e-5,"MEAN_MOTION_DDOT":0},{"OBJECT_NAME":"STARLINK-3182","OBJECT_ID":"2022-010P","EPOCH":"2026-03-14T22:18:05.204160","MEAN_MOTION":15.08903268,"ECCENTRICITY":0.0001194,"INCLINATION":53.2161,"RA_OF_ASC_NODE":255.5984,"ARG_OF_PERICENTER":105.1191,"MEAN_ANOMALY":254.9934,"EPHEMERIS_TYPE":0,"CLASSIFICATION_TYPE":"U","NORAD_CAT_ID":51469,"ELEMENT_SET_NO":999,"REV_AT_EPOCH":22761,"BSTAR":-0.0010388932,"MEAN_MOTION_DOT":-0.00016812,"MEAN_MOTION_DDOT":0},{"OBJECT_NAME":"STARLINK-3415","OBJECT_ID":"2022-010S","EPOCH":"2026-03-14T21:42:23.177952","MEAN_MOTION":15.08846536,"ECCENTRICITY":0.00013907,"INCLINATION":53.2142,"RA_OF_ASC_NODE":255.6421,"ARG_OF_PERICENTER":100.8178,"MEAN_ANOMALY":259.2971,"EPHEMERIS_TYPE":0,"CLASSIFICATION_TYPE":"U","NORAD_CAT_ID":51472,"ELEMENT_SET_NO":999,"REV_AT_EPOCH":22761,"BSTAR":0.00011181026,"MEAN_MOTION_DOT":1.492e-5,"MEAN_MOTION_DDOT":0},{"OBJECT_NAME":"STARLINK-3528","OBJECT_ID":"2022-016A","EPOCH":"2026-03-14T21:51:40.484736","MEAN_MOTION":15.08827265,"ECCENTRICITY":0.00013407,"INCLINATION":53.2178,"RA_OF_ASC_NODE":305.6586,"ARG_OF_PERICENTER":93.6574,"MEAN_ANOMALY":266.4572,"EPHEMERIS_TYPE":0,"CLASSIFICATION_TYPE":"U","NORAD_CAT_ID":51714,"ELEMENT_SET_NO":999,"REV_AT_EPOCH":22421,"BSTAR":0.00015501171,"MEAN_MOTION_DOT":2.179e-5,"MEAN_MOTION_DDOT":0},{"OBJECT_NAME":"STARLINK-3533","OBJECT_ID":"2022-016B","EPOCH":"2026-03-14T21:41:05.515584","MEAN_MOTION":15.08847863,"ECCENTRICITY":0.0001443,"INCLINATION":53.2177,"RA_OF_ASC_NODE":305.726,"ARG_OF_PERICENTER":77.5545,"MEAN_ANOMALY":282.5608,"EPHEMERIS_TYPE":0,"CLASSIFICATION_TYPE":"U","NORAD_CAT_ID":51715,"ELEMENT_SET_NO":999,"REV_AT_EPOCH":22534,"BSTAR":0.00032599212,"MEAN_MOTION_DOT":4.905e-5,"MEAN_MOTION_DDOT":0},{"OBJECT_NAME":"STARLINK-3543","OBJECT_ID":"2022-016C","EPOCH":"2026-03-14T21:50:18.084192","MEAN_MOTION":15.08841131,"ECCENTRICITY":0.00014296,"INCLINATION":53.2187,"RA_OF_ASC_NODE":305.6872,"ARG_OF_PERICENTER":92.6675,"MEAN_ANOMALY":267.4481,"EPHEMERIS_TYPE":0,"CLASSIFICATION_TYPE":"U","NORAD_CAT_ID":51716,"ELEMENT_SET_NO":999,"REV_AT_EPOCH":22421,"BSTAR":5.9406088e-5,"MEAN_MOTION_DOT":6.58e-6,"MEAN_MOTION_DDOT":0},{"OBJECT_NAME":"STARLINK-3445","OBJECT_ID":"2022-016D","EPOCH":"2026-03-14T21:56:59.659296","MEAN_MOTION":15.08838803,"ECCENTRICITY":0.00013386,"INCLINATION":53.2191,"RA_OF_ASC_NODE":305.7544,"ARG_OF_PERICENTER":93.1347,"MEAN_ANOMALY":266.9798,"EPHEMERIS_TYPE":0,"CLASSIFICATION_TYPE":"U","NORAD_CAT_ID":51717,"ELEMENT_SET_NO":999,"REV_AT_EPOCH":22421,"BSTAR":3.483795e-6,"MEAN_MOTION_DOT":-2.32e-6,"MEAN_MOTION_DDOT":0},{"OBJECT_NAME":"STARLINK-3546","OBJECT_ID":"2022-016E","EPOCH":"2026-03-14T21:05:42.670176","MEAN_MOTION":15.15555472,"ECCENTRICITY":7.149e-5,"INCLINATION":53.2137,"RA_OF_ASC_NODE":302.8993,"ARG_OF_PERICENTER":333.1072,"MEAN_ANOMALY":26.9886,"EPHEMERIS_TYPE":0,"CLASSIFICATION_TYPE":"U","NORAD_CAT_ID":51718,"ELEMENT_SET_NO":999,"REV_AT_EPOCH":22537,"BSTAR":0.0013597416,"MEAN_MOTION_DOT":0.00025881,"MEAN_MOTION_DDOT":0},{"OBJECT_NAME":"STARLINK-3540","OBJECT_ID":"2022-016F","EPOCH":"2026-03-14T21:45:01.023840","MEAN_MOTION":15.08836417,"ECCENTRICITY":0.00014854,"INCLINATION":53.2168,"RA_OF_ASC_NODE":305.7821,"ARG_OF_PERICENTER":91.0509,"MEAN_ANOMALY":269.0653,"EPHEMERIS_TYPE":0,"CLASSIFICATION_TYPE":"U","NORAD_CAT_ID":51719,"ELEMENT_SET_NO":999,"REV_AT_EPOCH":22421,"BSTAR":0.00022416133,"MEAN_MOTION_DOT":3.281e-5,"MEAN_MOTION_DDOT":0},{"OBJECT_NAME":"STARLINK-3526","OBJECT_ID":"2022-016G","EPOCH":"2026-03-14T21:14:37.250304","MEAN_MOTION":15.08815974,"ECCENTRICITY":0.00013218,"INCLINATION":53.2175,"RA_OF_ASC_NODE":305.7678,"ARG_OF_PERICENTER":85.6467,"MEAN_ANOMALY":274.4676,"EPHEMERIS_TYPE":0,"CLASSIFICATION_TYPE":"U","NORAD_CAT_ID":51720,"ELEMENT_SET_NO":999,"REV_AT_EPOCH":22420,"BSTAR":-0.00011855317,"MEAN_MOTION_DOT":-2.173e-5,"MEAN_MOTION_DDOT":0},{"OBJECT_NAME":"STARLINK-3524","OBJECT_ID":"2022-016H","EPOCH":"2026-03-14T21:30:29.309184","MEAN_MOTION":15.08840181,"ECCENTRICITY":0.00013208,"INCLINATION":53.2174,"RA_OF_ASC_NODE":305.7583,"ARG_OF_PERICENTER":90.7549,"MEAN_ANOMALY":269.3594,"EPHEMERIS_TYPE":0,"CLASSIFICATION_TYPE":"U","NORAD_CAT_ID":51721,"ELEMENT_SET_NO":999,"REV_AT_EPOCH":22421,"BSTAR":4.5834586e-5,"MEAN_MOTION_DOT":4.42e-6,"MEAN_MOTION_DDOT":0},{"OBJECT_NAME":"STARLINK-3535","OBJECT_ID":"2022-016J","EPOCH":"2026-03-14T21:07:54.072480","MEAN_MOTION":15.08839818,"ECCENTRICITY":0.0001319,"INCLINATION":53.217,"RA_OF_ASC_NODE":305.8195,"ARG_OF_PERICENTER":93.4039,"MEAN_ANOMALY":266.7104,"EPHEMERIS_TYPE":0,"CLASSIFICATION_TYPE":"U","NORAD_CAT_ID":51722,"ELEMENT_SET_NO":999,"REV_AT_EPOCH":22420,"BSTAR":9.6151996e-5,"MEAN_MOTION_DOT":1.243e-5,"MEAN_MOTION_DDOT":0},{"OBJECT_NAME":"STARLINK-3529","OBJECT_ID":"2022-016L","EPOCH":"2026-03-14T22:32:40.180416","MEAN_MOTION":15.08857845,"ECCENTRICITY":0.00016392,"INCLINATION":53.2185,"RA_OF_ASC_NODE":305.5569,"ARG_OF_PERICENTER":93.6466,"MEAN_ANOMALY":266.4713,"EPHEMERIS_TYPE":0,"CLASSIFICATION_TYPE":"U","NORAD_CAT_ID":51724,"ELEMENT_SET_NO":999,"REV_AT_EPOCH":22421,"BSTAR":0.00014643888,"MEAN_MOTION_DOT":2.044e-5,"MEAN_MOTION_DDOT":0},{"OBJECT_NAME":"STARLINK-3522","OBJECT_ID":"2022-016M","EPOCH":"2026-03-14T21:13:14.573280","MEAN_MOTION":15.0882373,"ECCENTRICITY":0.00013743,"INCLINATION":53.2178,"RA_OF_ASC_NODE":305.8009,"ARG_OF_PERICENTER":90.8833,"MEAN_ANOMALY":269.2317,"EPHEMERIS_TYPE":0,"CLASSIFICATION_TYPE":"U","NORAD_CAT_ID":51725,"ELEMENT_SET_NO":999,"REV_AT_EPOCH":22420,"BSTAR":2.8393584e-5,"MEAN_MOTION_DOT":1.64e-6,"MEAN_MOTION_DDOT":0},{"OBJECT_NAME":"STARLINK-3527","OBJECT_ID":"2022-016N","EPOCH":"2026-03-14T21:55:48.049248","MEAN_MOTION":15.09038819,"ECCENTRICITY":0.00013122,"INCLINATION":53.217,"RA_OF_ASC_NODE":295.6611,"ARG_OF_PERICENTER":89.3827,"MEAN_ANOMALY":270.7316,"EPHEMERIS_TYPE":0,"CLASSIFICATION_TYPE":"U","NORAD_CAT_ID":51726,"ELEMENT_SET_NO":999,"REV_AT_EPOCH":22435,"BSTAR":0.00037528122,"MEAN_MOTION_DOT":5.722e-5,"MEAN_MOTION_DDOT":0},{"OBJECT_NAME":"STARLINK-3532","OBJECT_ID":"2022-016P","EPOCH":"2026-03-14T22:37:59.741184","MEAN_MOTION":15.08838111,"ECCENTRICITY":0.00013115,"INCLINATION":53.2171,"RA_OF_ASC_NODE":305.5378,"ARG_OF_PERICENTER":91.7067,"MEAN_ANOMALY":268.4075,"EPHEMERIS_TYPE":0,"CLASSIFICATION_TYPE":"U","NORAD_CAT_ID":51727,"ELEMENT_SET_NO":999,"REV_AT_EPOCH":22421,"BSTAR":3.7274011e-5,"MEAN_MOTION_DOT":3.05e-6,"MEAN_MOTION_DDOT":0},{"OBJECT_NAME":"STARLINK-3523","OBJECT_ID":"2022-016R","EPOCH":"2026-03-14T22:02:13.725888","MEAN_MOTION":15.08839544,"ECCENTRICITY":0.00014747,"INCLINATION":53.2172,"RA_OF_ASC_NODE":295.6511,"ARG_OF_PERICENTER":92.5775,"MEAN_ANOMALY":267.5386,"EPHEMERIS_TYPE":0,"CLASSIFICATION_TYPE":"U","NORAD_CAT_ID":51729,"ELEMENT_SET_NO":999,"REV_AT_EPOCH":22435,"BSTAR":0.00014231406,"MEAN_MOTION_DOT":1.978e-5,"MEAN_MOTION_DDOT":0},{"OBJECT_NAME":"STARLINK-3514","OBJECT_ID":"2022-016T","EPOCH":"2026-03-14T21:51:38.167488","MEAN_MOTION":15.08833217,"ECCENTRICITY":0.00013074,"INCLINATION":53.2182,"RA_OF_ASC_NODE":295.6843,"ARG_OF_PERICENTER":88.9908,"MEAN_ANOMALY":271.1234,"EPHEMERIS_TYPE":0,"CLASSIFICATION_TYPE":"U","NORAD_CAT_ID":51731,"ELEMENT_SET_NO":999,"REV_AT_EPOCH":22435,"BSTAR":-6.126352e-6,"MEAN_MOTION_DOT":-3.85e-6,"MEAN_MOTION_DDOT":0}]
